ONEWEB-0208             
1 48243U 21031AK  24234.57558342  .00000105  00000+0  24850-3 0  9999
2 48243  87.8919  61.8903 0001821  95.4315 264.7023 13.14505665160996
ONEWEB-0200             
1 48244U 21031AL  24234.61522287 -.00000015  00000+0 -75542-4 0  9991
2 48244  87.8920  61.8787 0001770  95.2401 264.8931 13.14504019160920
ONEWEB-0217             
1 48245U 21031AM  24234.55495808 -.00000185  00000+0 -53418-3 0  9998
2 48245  87.8919  61.8754 0001729  99.8110 260.3215 13.14504075160865
ONEWEB-0211             
1 48767U 21045A   24234.81032006  .00000077  00000+0  17176-3 0  9997
2 48767  87.9046  31.3768 0001601  91.0613 269.0701 13.15547698157067
ONEWEB-0223             
1 48768U 21045B   24234.83251384  .00000035  00000+0  58485-4 0  9995
2 48768  87.9051  31.3816 0001167 103.2902 256.8359 13.15547933157056
ONEWEB-0230             
1 48769U 21045C   24234.95609217  .00000168  00000+0  41097-3 0  9998
2 48769  87.9048  31.4275 0001676  88.2299 271.9023 13.15545621158441
ONEWEB-0237             
1 48770U 21045D   24234.48865984  .00000115  00000+0  27189-3 0  9991
2 48770  87.9052  31.4552 0001384  99.7902 260.3385 13.15549909156994
ONEWEB-0235             
1 48771U 21045E   24234.84359370 -.00000080  00000+0 -24623-3 0  9992
2 48771  87.9046  31.3894 0001016 101.6174 258.5071 13.15548014157035
ONEWEB-0242             
1 48772U 21045F   24235.14148517  .00000069  00000+0  14869-3 0  9992
2 48772  87.9047  31.3180 0001521  90.5980 269.5324 13.15548980158246
ONEWEB-0241             
1 48773U 21045G   24234.82457744 -.00000010  00000+0 -61313-4 0  9997
2 48773  87.9055  31.4337 0001524 104.4573 255.6727 13.15547783156989
ONEWEB-0243             
1 48774U 21045H   24235.16049761 -.00000047  00000+0 -16015-3 0  9990
2 48774  87.9058  31.3268 0001158  96.9651 263.1611 13.15547012158185
ONEWEB-0222             
1 48775U 21045J   24235.14386379  .00000019  00000+0  16268-4 0  9996
2 48775  87.9046  31.3267 0001550 100.7593 259.3712 13.15548345158210
ONEWEB-0244             
1 48776U 21045K   24234.48548060 -.00000012  00000+0 -66642-4 0  9996
2 48776  87.9043  31.4395 0001583  89.4707 270.6605 13.15550177157578
ONEWEB-0247             
1 48777U 21045L   24234.48230943 -.00000065  00000+0 -20570-3 0  9992
2 48777  87.9050  31.4862 0000651  96.7400 263.3804 13.15549116157012
ONEWEB-0245             
1 48778U 21045M   24234.47756655 -.00000082  00000+0 -25138-3 0  9999
2 48778  87.9043  31.4726 0001745 101.5440 258.5886 13.15548714156982
ONEWEB-0229             
1 48779U 21045N   24234.85310095 -.00000109  00000+0 -32322-3 0  9999
2 48779  87.9046  31.3923 0001596  91.4131 268.7182 13.15548684157060
ONEWEB-0228             
1 48780U 21045P   24234.88558162  .00000174  00000+0  42825-3 0  9992
2 48780  87.9044  31.3674 0001601  91.2948 268.8366 13.15546441156988
ONEWEB-0232             
1 48781U 21045Q   24234.48074313 -.00000568  00000+0 -15419-2 0  9997
2 48781  87.9036  31.4589 0001654  93.1167 267.0153 13.15551237157253
ONEWEB-0231             
1 48782U 21045R   24235.14307179 -.00000006  00000+0 -49773-4 0  9990
2 48782  87.9057  31.3663 0001452  93.5664 266.5632 13.15548950158177
ONEWEB-0234             
1 48783U 21045S   24234.85865284 -.00000096  00000+0 -29017-3 0  9991
2 48783  87.9046  31.3772 0002987 105.8577 254.2883 13.15548328157137
ONEWEB-0238             
1 48784U 21045T   24234.81270100  .00000168  00000+0  41265-3 0  9992
2 48784  87.9046  31.4037 0001846  92.7564 267.3777 13.15548870157023
ONEWEB-0240             
1 48785U 21045U   24234.82220727  .00000075  00000+0  16483-3 0  9995
2 48785  87.9046  31.3686 0001516 103.7735 256.3565 13.15548221157056
ONEWEB-0246             
1 48786U 21045V   24234.81666550  .00000118  00000+0  28032-3 0  9994
2 48786  87.9048  31.3754 0001543  87.2957 272.8349 13.15550581156927
ONEWEB-0210             
1 48787U 21045W   24234.86735482  .00000500  00000+0  12950-2 0  9997
2 48787  87.9045  31.3694 0000941 131.9654 228.1557 13.15552535158108
ONEWEB-0214             
1 48788U 21045X   24235.18109873  .00000026  00000+0  35463-4 0  9992
2 48788  87.9044  31.2960 0001278  79.2973 280.8302 13.15548356158104
ONEWEB-0221             
1 48789U 21045Y   24234.88320722  .00000181  00000+0  44765-3 0  9993
2 48789  87.9048  31.3753 0001531  98.6670 261.4634 13.15549307157032
ONEWEB-0213             
1 48790U 21045Z   24234.79605536  .00000005  00000+0 -20833-4 0  9991
2 48790  87.9046  31.4049 0001384  99.2071 260.9216 13.15547647157089
ONEWEB-0212             
1 48791U 21045AA  24235.15337087 -.00000058  00000+0 -18687-3 0  9998
2 48791  87.9049  31.3178 0001828  94.6815 265.4524 13.15548657158268
ONEWEB-0227             
1 48792U 21045AB  24234.84834656 -.00000098  00000+0 -29403-3 0  9990
2 48792  87.9048  31.3931 0001633  97.8353 262.2962 13.15548323158161
ONEWEB-0226             
1 48793U 21045AC  24235.14623834 -.00000046  00000+0 -15674-3 0  9997
2 48793  87.9048  31.3402 0001202  91.4632 268.6635 13.15548786158167
ONEWEB-0224             
1 48794U 21045AD  24234.88162350  .00000185  00000+0  45675-3 0  9995
2 48794  87.9051  31.4169 0002108 124.8481 235.2848 13.15548077156934
ONEWEB-0233             
1 48795U 21045AE  24234.96322147  .00000189  00000+0  46836-3 0  9991
2 48795  87.9049  31.4145 0001547 100.0069 260.1236 13.15547969158074
ONEWEB-0190             
1 48796U 21045AF  24234.87369666  .00000077  00000+0  17038-3 0  9997
2 48796  87.9051  31.3925 0000865 115.6681 244.4538 13.15548569157028
ONEWEB-0236             
1 48797U 21045AG  24235.19535861  .00000210  00000+0  52325-3 0  9993
2 48797  87.9057  31.3245 0001688  98.0987 262.0335 13.15548327158076
ONEWEB-0248             
1 48798U 21045AH  24234.90380151  .00000130  00000+0  31161-3 0  9998
2 48798  87.9047  31.3674 0001475 119.4052 240.7225 13.15550897158196
ONEWEB-0225             
1 48799U 21045AJ  24235.15416092 -.00000080  00000+0 -24670-3 0  9994
2 48799  87.9052  31.3330 0001371 103.4346 256.6937 13.15548566158259
ONEWEB-0215             
1 48800U 21045AK  24234.97194379  .00000196  00000+0  48758-3 0  9996
2 48800  87.9045  31.3394 0001209 120.9588 239.1662 13.15552463158089
ONEWEB-0216             
1 48801U 21045AL  24235.13356263  .00000159  00000+0  38867-3 0  9997
2 48801  87.9048  31.3489 0001536  83.2573 276.8732 13.15549212158114
ONEWEB-0239             
1 48802U 21045AM  24235.13831231  .00000070  00000+0  15121-3 0  9991
2 48802  87.9057  31.3296 0001457 126.7889 233.3375 13.15548422158175
ONEWEB-0249             
1 48967U 21060A   24235.06666867  .00000084  00000+0  18516-3 0  9999
2 48967  87.9157   1.0094 0001804  97.4196 262.7140 13.16594878153515
ONEWEB-0250             
1 48968U 21060B   24235.07657589  .00000102  00000+0  20329-3 0  9998
2 48968  87.9157   0.9218 0001742 112.2785 247.8536 13.25519347153514
ONEWEB-0252             
1 48970U 21060D   24234.79434190 -.00002030  00000+0 -53447-2 0  9990
2 48970  87.9158   1.0561 0001918 102.2713 257.8632 13.16604560152234
ONEWEB-0253             
1 48971U 21060E   24235.08724767  .00000056  00000+0  11258-3 0  9995
2 48971  87.9155   1.0093 0001520 103.4068 256.7233 13.16594307153487
ONEWEB-0254             
1 48972U 21060F   24235.09674731  .00000001  00000+0 -31940-4 0  9994
2 48972  87.9158   0.9861 0001515 104.6519 255.4780 13.16594427153486
ONEWEB-0255             
1 48973U 21060G   24234.83075819  .00000015  00000+0  56872-5 0  9994
2 48973  87.9158   1.0735 0001800  99.4985 260.6349 13.16594266152247
ONEWEB-0256             
1 48974U 21060H   24235.08486567  .00000117  00000+0  27313-3 0  9998
2 48974  87.9160   1.0282 0001787  92.4347 267.6988 13.16596995153537
ONEWEB-0257             
1 48975U 21060J   24234.88932806  .00000220  00000+0  54259-3 0  9992
2 48975  87.9157   1.0360 0001605  93.8053 266.3261 13.16596804153460
ONEWEB-0258             
1 48976U 21060K   24234.81492711  .00000156  00000+0  37422-3 0  9993
2 48976  87.9158   1.0787 0001766  97.1370 262.9962 13.16596329152171
ONEWEB-0259             
1 48977U 21060L   24234.88458030 -.00000129  00000+0 -37181-3 0  9991
2 48977  87.9158   1.0498 0001500 108.6304 251.4990 13.16597715153504
ONEWEB-0260             
1 48978U 21060M   24234.87587664  .00000184  00000+0  44660-3 0  9996
2 48978  87.9156   1.0807 0001536  77.7905 282.3398 13.16596129153478
ONEWEB-0261             
1 48979U 21060N   24234.84501050 -.00000013  00000+0 -68132-4 0  9993
2 48979  87.9159   1.0818 0001195 105.1332 254.9931 13.16594712152243
ONEWEB-0262             
1 48980U 21060P   24234.82600753  .00000006  00000+0 -18973-4 0  9992
2 48980  87.9156   1.0481 0001699 112.5582 247.5729 13.16593552152206
ONEWEB-0263             
1 48981U 21060Q   24235.08566708  .00000086  00000+0  19179-3 0  9998
2 48981  87.9159   1.0149 0001436 111.4111 248.7174 13.16595045153506
ONEWEB-0264             
1 48982U 21060R   24234.89488086  .00000142  00000+0  33808-3 0  9997
2 48982  87.9159   1.0632 0001709  96.5669 263.5656 13.16595584153472
ONEWEB-0266             
1 48984U 21060T   24234.91626189 -.00000038  00000+0 -13229-3 0  9991
2 48984  87.9157   1.0353 0001884  99.1530 260.9814 13.16594581153475
ONEWEB-0267             
1 48985U 21060U   24234.77534765 -.00000005  00000+0 -47947-4 0  9993
2 48985  87.9155   1.0650 0001390  97.8732 262.2557 13.16594482152169
ONEWEB-0268             
1 48986U 21060V   24234.81967042 -.00000002  00000+0 -38543-4 0  9996
2 48986  87.9159   1.0626 0001715  92.4998 267.6329 13.16594612152434
ONEWEB-0269             
1 48987U 21060W   24235.10463808 -.00000432  00000+0 -11648-2 0  9993
2 48987  87.9160   1.0336 0001888  96.3332 263.8014 13.16595339153540
ONEWEB-0270             
1 48988U 21060X   24234.81809473  .00000098  00000+0  22303-3 0  9990
2 48988  87.9157   1.0703 0001414 112.8629 247.2651 13.16594231152242
